FLOCK 4BE-3             
1 60561U 24149CX  26187.16217143  .00019194  00000+0  44909-3 0  9999
2 60561  97.3685 271.2635 0004170 197.4811 162.6294 15.42172383105267
FLOCK 4BE-19            
1 60563U 24149CZ  26187.17038542  .00025299  00000+0  53121-3 0  9995
2 60563  97.3739 272.9046 0005029 204.3462 155.7551 15.45333941105358
FLOCK 4G-8              
1 62613U 25009E   26187.18345811  .00011228  00000+0  38754-3 0  9992
2 62613  97.4000 269.1122 0003186 227.7032 132.3939 15.30125078 81825
FLOCK 4G-13             
1 62621U 25009N   26187.17972516  .00090963  00000+0  17351-2 0  9990
2 62621  97.3942 270.8231 0005851 220.8738 139.2074 15.47813293 81935
FLOCK 4G-9              
1 62622U 25009P   26187.19600337  .00009001  00000+0  32806-3 0  9998
2 62622  97.3951 268.0085 0003311 244.7105 115.3792 15.28403037 81767
FLOCK 4G-7              
1 62624U 25009R   26187.16520598  .00010988  00000+0  38418-3 0  9998
2 62624  97.3936 268.3786 0001659 214.6649 145.4484 15.29712214 81803
FLOCK 4G-12             
1 62625U 25009S   26187.16002089  .00011340  00000+0  39724-3 0  9993
2 62625  97.4017 268.9144 0003266 223.5402 136.5580 15.29641667 81802
FLOCK 4G-11             
1 62629U 25009W   26187.14552500  .00010984  00000+0  38361-3 0  9992
2 62629  97.3917 268.4687 0001698 220.0032 140.1084 15.29748716 81813
FLOCK 4G-26             
1 62633U 25009AA  26187.16019277  .00012937  00000+0  44875-3 0  9995
2 62633  97.4013 269.0723 0002752 209.5006 150.6079 15.29929655 81812
FLOCK 4G-28             
1 62634U 25009AB  26187.15660347  .00009074  00000+0  26812-3 0  9994
2 62634  97.4018 271.7809 0001311 180.9200 179.2041 15.35173235 81998
FLOCK 4G-20             
1 62636U 25009AD  26187.19763499  .00155959  00000+0  20015-2 0  9994
2 62636  97.3838 272.2672 0005661 223.5875 136.4935 15.58586671 82071
FLOCK 4G-24             
1 62637U 25009AE  26187.17326309  .00010442  00000+0  35928-3 0  9995
2 62637  97.4020 269.3852 0002794 194.3863 165.7299 15.30248090 81830
FLOCK 4G-3              
1 62639U 25009AG  26187.16351707  .00011012  00000+0  38461-3 0  9995
2 62639  97.4021 269.0901 0002312 198.4024 161.7134 15.29747830 81800
FLOCK 4G-27             
1 62641U 25009AJ  26187.18273573  .00011113  00000+0  38883-3 0  9994
2 62641  97.3925 268.4691 0001663 197.0956 163.0229 15.29686120 81805
FLOCK 4G-29             
1 62642U 25009AK  26187.16842996  .00009761  00000+0  34116-3 0  9995
2 62642  97.4014 269.0555 0002501 194.2685 165.8485 15.29756894 81802
FLOCK 4G-22             
1 62645U 25009AN  26187.18632083  .00010867  00000+0  38070-3 0  9996
2 62645  97.4001 269.1102 0002087 187.6742 172.4467 15.29650073 81827
