{"fetched_at":"2026-07-06T18:35:16.154Z","source":"https://celestrak.org/NORAD/elements/gp.php?GROUP=planet&FORMAT=JSON","constellation":"superdove","records":[{"OBJECT_NAME":"FLOCK 4BE-3","OBJECT_ID":"2024-149CX","EPOCH":"2026-07-06T03:53:31.611552","CLASSIFICATION_TYPE":"U","MEAN_MOTION":15.42172383,"ECCENTRICITY":0.00041706,"INCLINATION":97.3685,"RA_OF_ASC_NODE":271.2635,"ARG_OF_PERICENTER":197.4811,"MEAN_ANOMALY":162.6294,"EPHEMERIS_TYPE":0,"NORAD_CAT_ID":60561,"ELEMENT_SET_NO":999,"REV_AT_EPOCH":10526,"BSTAR":0.00044908546,"MEAN_MOTION_DOT":0.00019194,"MEAN_MOTION_DDOT":0},{"OBJECT_NAME":"FLOCK 4BE-19","OBJECT_ID":"2024-149CZ","EPOCH":"2026-07-06T04:05:21.300288","CLASSIFICATION_TYPE":"U","MEAN_MOTION":15.45333941,"ECCENTRICITY":0.00050297,"INCLINATION":97.3739,"RA_OF_ASC_NODE":272.9046,"ARG_OF_PERICENTER":204.3462,"MEAN_ANOMALY":155.7551,"EPHEMERIS_TYPE":0,"NORAD_CAT_ID":60563,"ELEMENT_SET_NO":999,"REV_AT_EPOCH":10535,"BSTAR":0.00053120991,"MEAN_MOTION_DOT":0.00025299,"MEAN_MOTION_DDOT":0},{"OBJECT_NAME":"FLOCK 4G-8","OBJECT_ID":"2025-009E","EPOCH":"2026-07-06T04:24:10.780704","CLASSIFICATION_TYPE":"U","MEAN_MOTION":15.30125078,"ECCENTRICITY":0.00031866,"INCLINATION":97.4,"RA_OF_ASC_NODE":269.1122,"ARG_OF_PERICENTER":227.7032,"MEAN_ANOMALY":132.3939,"EPHEMERIS_TYPE":0,"NORAD_CAT_ID":62613,"ELEMENT_SET_NO":999,"REV_AT_EPOCH":8182,"BSTAR":0.00038753802,"MEAN_MOTION_DOT":0.00011228,"MEAN_MOTION_DDOT":0},{"OBJECT_NAME":"FLOCK 4G-13","OBJECT_ID":"2025-009N","EPOCH":"2026-07-06T04:18:48.253824","CLASSIFICATION_TYPE":"U","MEAN_MOTION":15.47813293,"ECCENTRICITY":0.00058513,"INCLINATION":97.3942,"RA_OF_ASC_NODE":270.8231,"ARG_OF_PERICENTER":220.8738,"MEAN_ANOMALY":139.2074,"EPHEMERIS_TYPE":0,"NORAD_CAT_ID":62621,"ELEMENT_SET_NO":999,"REV_AT_EPOCH":8193,"BSTAR":0.0017350509,"MEAN_MOTION_DOT":0.00090963,"MEAN_MOTION_DDOT":0},{"OBJECT_NAME":"FLOCK 4G-9","OBJECT_ID":"2025-009P","EPOCH":"2026-07-06T04:42:14.691168","CLASSIFICATION_TYPE":"U","MEAN_MOTION":15.28403037,"ECCENTRICITY":0.00033115,"INCLINATION":97.3951,"RA_OF_ASC_NODE":268.0085,"ARG_OF_PERICENTER":244.7105,"MEAN_ANOMALY":115.3792,"EPHEMERIS_TYPE":0,"NORAD_CAT_ID":62622,"ELEMENT_SET_NO":999,"REV_AT_EPOCH":8176,"BSTAR":0.00032806174,"MEAN_MOTION_DOT":0.00009001,"MEAN_MOTION_DDOT":0},{"OBJECT_NAME":"FLOCK 4G-7","OBJECT_ID":"2025-009R","EPOCH":"2026-07-06T03:57:53.796672","CLASSIFICATION_TYPE":"U","MEAN_MOTION":15.29712214,"ECCENTRICITY":0.00016599,"INCLINATION":97.3936,"RA_OF_ASC_NODE":268.3786,"ARG_OF_PERICENTER":214.6649,"MEAN_ANOMALY":145.4484,"EPHEMERIS_TYPE":0,"NORAD_CAT_ID":62624,"ELEMENT_SET_NO":999,"REV_AT_EPOCH":8180,"BSTAR":0.00038417616,"MEAN_MOTION_DOT":0.00010988,"MEAN_MOTION_DDOT":0},{"OBJECT_NAME":"FLOCK 4G-12","OBJECT_ID":"2025-009S","EPOCH":"2026-07-06T03:50:25.804896","CLASSIFICATION_TYPE":"U","MEAN_MOTION":15.29641667,"ECCENTRICITY":0.00032666,"INCLINATION":97.4017,"RA_OF_ASC_NODE":268.9144,"ARG_OF_PERICENTER":223.5402,"MEAN_ANOMALY":136.558,"EPHEMERIS_TYPE":0,"NORAD_CAT_ID":62625,"ELEMENT_SET_NO":999,"REV_AT_EPOCH":8180,"BSTAR":0.00039723948,"MEAN_MOTION_DOT":0.0001134,"MEAN_MOTION_DDOT":0},{"OBJECT_NAME":"FLOCK 4G-11","OBJECT_ID":"2025-009W","EPOCH":"2026-07-06T03:29:33.360000","CLASSIFICATION_TYPE":"U","MEAN_MOTION":15.29748716,"ECCENTRICITY":0.00016981,"INCLINATION":97.3917,"RA_OF_ASC_NODE":268.4687,"ARG_OF_PERICENTER":220.0032,"MEAN_ANOMALY":140.1084,"EPHEMERIS_TYPE":0,"NORAD_CAT_ID":62629,"ELEMENT_SET_NO":999,"REV_AT_EPOCH":8181,"BSTAR":0.00038360787,"MEAN_MOTION_DOT":0.00010984,"MEAN_MOTION_DDOT":0},{"OBJECT_NAME":"FLOCK 4G-26","OBJECT_ID":"2025-009AA","EPOCH":"2026-07-06T03:50:40.655328","CLASSIFICATION_TYPE":"U","MEAN_MOTION":15.29929655,"ECCENTRICITY":0.00027527,"INCLINATION":97.4013,"RA_OF_ASC_NODE":269.0723,"ARG_OF_PERICENTER":209.5006,"MEAN_ANOMALY":150.6079,"EPHEMERIS_TYPE":0,"NORAD_CAT_ID":62633,"ELEMENT_SET_NO":999,"REV_AT_EPOCH":8181,"BSTAR":0.00044874831,"MEAN_MOTION_DOT":0.00012937,"MEAN_MOTION_DDOT":0},{"OBJECT_NAME":"FLOCK 4G-28","OBJECT_ID":"2025-009AB","EPOCH":"2026-07-06T03:45:30.539808","CLASSIFICATION_TYPE":"U","MEAN_MOTION":15.35173235,"ECCENTRICITY":0.00013117,"INCLINATION":97.4018,"RA_OF_ASC_NODE":271.7809,"ARG_OF_PERICENTER":180.92,"MEAN_ANOMALY":179.2041,"EPHEMERIS_TYPE":0,"NORAD_CAT_ID":62634,"ELEMENT_SET_NO":999,"REV_AT_EPOCH":8199,"BSTAR":0.00026811677,"MEAN_MOTION_DOT":0.00009074,"MEAN_MOTION_DDOT":0},{"OBJECT_NAME":"FLOCK 4G-20","OBJECT_ID":"2025-009AD","EPOCH":"2026-07-06T04:44:35.663136","CLASSIFICATION_TYPE":"U","MEAN_MOTION":15.58586671,"ECCENTRICITY":0.00056612,"INCLINATION":97.3838,"RA_OF_ASC_NODE":272.2672,"ARG_OF_PERICENTER":223.5875,"MEAN_ANOMALY":136.4935,"EPHEMERIS_TYPE":0,"NORAD_CAT_ID":62636,"ELEMENT_SET_NO":999,"REV_AT_EPOCH":8207,"BSTAR":0.0020014789,"MEAN_MOTION_DOT":0.00155959,"MEAN_MOTION_DDOT":0},{"OBJECT_NAME":"FLOCK 4G-24","OBJECT_ID":"2025-009AE","EPOCH":"2026-07-06T04:09:29.930976","CLASSIFICATION_TYPE":"U","MEAN_MOTION":15.3024809,"ECCENTRICITY":0.00027947,"INCLINATION":97.402,"RA_OF_ASC_NODE":269.3852,"ARG_OF_PERICENTER":194.3863,"MEAN_ANOMALY":165.7299,"EPHEMERIS_TYPE":0,"NORAD_CAT_ID":62637,"ELEMENT_SET_NO":999,"REV_AT_EPOCH":8183,"BSTAR":0.00035928072,"MEAN_MOTION_DOT":0.00010442,"MEAN_MOTION_DDOT":0},{"OBJECT_NAME":"FLOCK 4G-3","OBJECT_ID":"2025-009AG","EPOCH":"2026-07-06T03:55:27.874848","CLASSIFICATION_TYPE":"U","MEAN_MOTION":15.2974783,"ECCENTRICITY":0.00023127,"INCLINATION":97.4021,"RA_OF_ASC_NODE":269.0901,"ARG_OF_PERICENTER":198.4024,"MEAN_ANOMALY":161.7134,"EPHEMERIS_TYPE":0,"NORAD_CAT_ID":62639,"ELEMENT_SET_NO":999,"REV_AT_EPOCH":8180,"BSTAR":0.00038461204,"MEAN_MOTION_DOT":0.00011012,"MEAN_MOTION_DDOT":0},{"OBJECT_NAME":"FLOCK 4G-27","OBJECT_ID":"2025-009AJ","EPOCH":"2026-07-06T04:23:08.367072","CLASSIFICATION_TYPE":"U","MEAN_MOTION":15.2968612,"ECCENTRICITY":0.0001663,"INCLINATION":97.3925,"RA_OF_ASC_NODE":268.4691,"ARG_OF_PERICENTER":197.0956,"MEAN_ANOMALY":163.0229,"EPHEMERIS_TYPE":0,"NORAD_CAT_ID":62641,"ELEMENT_SET_NO":999,"REV_AT_EPOCH":8180,"BSTAR":0.00038882853,"MEAN_MOTION_DOT":0.00011113,"MEAN_MOTION_DDOT":0},{"OBJECT_NAME":"FLOCK 4G-29","OBJECT_ID":"2025-009AK","EPOCH":"2026-07-06T04:02:32.348544","CLASSIFICATION_TYPE":"U","MEAN_MOTION":15.29756894,"ECCENTRICITY":0.00025019,"INCLINATION":97.4014,"RA_OF_ASC_NODE":269.0555,"ARG_OF_PERICENTER":194.2685,"MEAN_ANOMALY":165.8485,"EPHEMERIS_TYPE":0,"NORAD_CAT_ID":62642,"ELEMENT_SET_NO":999,"REV_AT_EPOCH":8180,"BSTAR":0.00034115862,"MEAN_MOTION_DOT":0.00009761,"MEAN_MOTION_DDOT":0},{"OBJECT_NAME":"FLOCK 4G-22","OBJECT_ID":"2025-009AN","EPOCH":"2026-07-06T04:28:18.119712","CLASSIFICATION_TYPE":"U","MEAN_MOTION":15.29650073,"ECCENTRICITY":0.00020874,"INCLINATION":97.4001,"RA_OF_ASC_NODE":269.1102,"ARG_OF_PERICENTER":187.6742,"MEAN_ANOMALY":172.4467,"EPHEMERIS_TYPE":0,"NORAD_CAT_ID":62645,"ELEMENT_SET_NO":999,"REV_AT_EPOCH":8182,"BSTAR":0.00038069934,"MEAN_MOTION_DOT":0.00010867,"MEAN_MOTION_DDOT":0}]}
